LEMUR-2-CELIJO-SB-PK    
1 66781U 25276DW  26204.45499987  .00006129  00000+0  49253-3 0  9992
2 66781  97.5182 274.0339 0006513  44.3861 315.7884 15.00352890 28066
LEMUR-2-FINNIAN         
1 66782U 25276DX  26204.15672261  .00005402  00000+0  43100-3 0  9996
2 66782  97.5351 274.0329 0006907 328.3462  31.7346 15.00680472 25394
LEMUR-2-STARLIGHT       
1 66783U 25276DY  26204.47767068  .00006375  00000+0  52363-3 0  9993
2 66783  97.5245 273.8780 0014425  21.9305 338.2533 14.99432550 35631
LEMUR-2-TARTIFLETTE     
1 66784U 25276DZ  26204.14249792  .00006309  00000+0  51868-3 0  9993
2 66784  97.5241 273.5617 0013729  32.0065 328.1990 14.99409339 35584
LEMUR-2-VUKASIN         
1 66785U 25276EA  26204.43992685  .00005433  00000+0  43451-3 0  9998
2 66785  97.5197 274.2199 0001781  22.0163 338.1138 15.00603730 35580
LEMUR-2-HOTSPUR-TOM     
1 66786U 25276EB  26204.13744019  .00006439  00000+0  53079-3 0  9996
2 66786  97.5217 273.5281 0013455  23.8988 336.2857 14.99305596 35519
LEMUR-2-MYRA            
1 66787U 25276EC  26204.13815039  .00006344  00000+0  50413-3 0  9992
2 66787  97.5228 273.8495 0018459  29.8071 330.4201 15.00655988 35605
LEMUR-2 FIKRETDENGIZ    
1 67363U 26004A   26204.23432764  .00003712  00000+0  40441-3 0  9990
2 67363  97.8036 202.2466 0009598  32.4337 327.7468 14.88560956 28644
TWILIGHT-1 OBJECT B     
1 67364U 26004B   26201.98878606  .00001110  00000+0  12740-3 0  9990
2 67364  97.8078 200.0319 0009314  28.9865 331.1867 14.87805943 28319
LEMUR-2-MARIO-SOUSA     
1 67365U 26004C   26204.41467763  .00004588  00000+0  49584-3 0  9998
2 67365  97.8008 202.4188 0009196  33.8780 326.3023 14.88777544 28688
LEMUR-2-SONNENBLUME     
1 67367U 26004E   26203.94851722  .00002415  00000+0  26574-3 0  9990
2 67367  97.8005 201.9290 0008904  35.7911 324.3902 14.88482895 28617
LEMUR-2-WOBLER          
1 67368U 26004F   26204.40699569  .00004076  00000+0  44153-3 0  9990
2 67368  97.8058 202.5398 0008811  26.3810 333.7854 14.88741264 28688
LEMUR-2-GRAM-E-SUE      
1 67370U 26004H   26204.46697805  .00002185  00000+0  24027-3 0  9997
2 67370  97.7995 202.4565 0008085  37.9278 322.2507 14.88618341 28692
LEMUR-2-KATIE           
1 67387U 26004AA  26203.94468344  .00004891  00000+0  50902-3 0  9998
2 67387  97.8053 202.5193 0002772  14.1370 345.9925 14.90299200 28633
LEMUR-2-HCS-BAZUS       
1 67388U 26004AB  26204.48013074  .00003865  00000+0  40341-3 0  9991
2 67388  97.8041 203.0256 0002213  14.5071 345.6210 14.90305691 28714
